SatCatId,ObjectName,LaunchYear,OrbitalPeriod,LaunchMass,StatusCode,Inclination,Status,UcsData,OrbitClassEstimated,LaunchSiteCountry,Owner,UseType,Purpose,LaunchVehicleClass,TLE1,TLE2,MeanMotion,Eccentricity,OrbitClass
57083,STARLINK-6253,2023,95.84,-1.0,+,43.0,Active,0,LEO,USA,USA,Unknown,Unknown,Unknown,1 57083U 23088AM  24173.56431663  .00000395  00000+0  44279-4 0  9991,2 57083  43.0014 256.7070 0001242 274.7587  85.3114 15.02536049 56337,15.02536049,0.0001242,LEO
57084,STARLINK-6240,2023,95.84,-1.0,+,43.0,Active,0,LEO,USA,USA,Unknown,Unknown,Unknown,1 57084U 23088AN  24173.57319878 -.00000647  00000+0 -32792-4 0  9995,2 57084  43.0024 256.7757 0001367 269.4177  90.6508 15.02534900 56335,15.025349,0.0001367,LEO
57085,STARLINK-6232,2023,95.84,-1.0,+,43.01,Active,0,LEO,USA,USA,Unknown,Unknown,Unknown,1 57085U 23088AP  24173.55987429  .00000517  00000+0  53350-4 0  9994,2 57085  43.0021 256.6720 0001213 273.8701  86.2003 15.02539396 56339,15.02539396,0.0001213,LEO
57086,STARLINK-6247,2023,95.84,-1.0,+,43.0,Active,0,LEO,USA,USA,Unknown,Unknown,Unknown,1 57086U 23088AQ  24173.56986825  .00000203  00000+0  30115-4 0  9991,2 57086  43.0024 256.7495 0000761 284.5823  75.4935 15.02534080 56333,15.0253408,7.61e-05,LEO
57087,STARLINK-6251,2023,95.84,-1.0,+,43.0,Active,0,LEO,USA,USA,Unknown,Unknown,Unknown,1 57087U 23088AR  24173.29063630  .00000322  00000+0  38923-4 0  9999,2 57087  43.0030 258.0938 0001357 272.9142  87.1545 15.02535612 56299,15.02535612,0.0001357,LEO
57088,STARLINK-6257,2023,95.84,-1.0,+,43.0,Active,0,LEO,USA,USA,Unknown,Unknown,Unknown,1 57088U 23088AS  24173.30062666 -.00000347  00000+0 -10632-4 0  9996,2 57088  42.9987 258.1659 0000954 257.3688 102.7048 15.02534239 56290,15.02534239,9.54e-05,LEO
57089,STARLINK-6259,2023,95.84,-1.0,+,43.0,Active,0,LEO,USA,USA,Unknown,Unknown,Unknown,1 57089U 23088AT  24173.28064713  .00001505  00000+0  12648-3 0  9992,2 57089  43.0020 258.0148 0001511 269.2281  90.8388 15.02531576 56299,15.02531576,0.0001511,LEO
57090,STARLINK-6254,2023,95.84,-1.0,+,43.0,Active,0,LEO,USA,USA,Unknown,Unknown,Unknown,1 57090U 23088AU  24173.28952575  .00002119  00000+0  17189-3 0  9993,2 57090  43.0031 258.0833 0001349 260.4581  99.6109 15.02530734 56292,15.02530734,0.0001349,LEO
57091,STARLINK-6262,2023,95.84,-1.0,+,43.0,Active,0,LEO,USA,USA,Unknown,Unknown,Unknown,1 57091U 23088AV  24173.54989089 -.00000441  00000+0 -17607-4 0  9997,2 57091  43.0028 256.5966 0001199 274.9449  85.1257 15.02535682 56331,15.02535682,0.0001199,LEO
57092,STARLINK-6225,2023,95.84,-1.0,+,43.0,Active,0,LEO,USA,USA,Unknown,Unknown,Unknown,1 57092U 23088AW  24173.55211064 -.00000194  00000+0  67485-6 0  9995,2 57092  43.0038 256.6141 0001036 274.4479  85.6245 15.02531228 56331,15.02531228,0.0001036,LEO
57093,STARLINK-6229,2023,95.84,-1.0,+,43.0,Active,0,LEO,USA,USA,Unknown,Unknown,Unknown,1 57093U 23088AX  24173.27732032  .00000556  00000+0  56253-4 0  9998,2 57093  43.0033 257.9913 0001255 283.9012  76.1691 15.02533425 56295,15.02533425,0.0001255,LEO
57094,STARLINK-6235,2023,95.84,-1.0,+,43.0,Active,0,LEO,USA,USA,Unknown,Unknown,Unknown,1 57094U 23088AY  24173.27620823  .00000940  00000+0  84664-4 0  9997,2 57094  43.0015 257.9810 0001268 272.0909  87.9788 15.02534800 56295,15.025348,0.0001268,LEO
57101,STARLINK-6132,2023,95.84,-1.0,+,43.01,Active,0,LEO,USA,USA,Unknown,Unknown,Unknown,1 57101U 23090A   24173.16718686  .00000237  00000+0  32624-4 0  9990,2 57101  43.0039  79.3888 0001209 269.1123  90.9581 15.02534398 56164,15.02534398,0.0001209,LEO
57102,STARLINK-6111,2023,95.84,-1.0,+,43.0,Active,0,LEO,USA,USA,Unknown,Unknown,Unknown,1 57102U 23090B   24173.16163369  .00000374  00000+0  42750-4 0  9996,2 57102  43.0060  79.3440 0001446 261.7998  98.2680 15.02536945 56165,15.02536945,0.0001446,LEO
57103,STARLINK-6123,2023,95.84,-1.0,+,43.0,Active,0,LEO,USA,USA,Unknown,Unknown,Unknown,1 57103U 23090C   24173.09123050 -.00000004  00000+0  14815-4 0  9994,2 57103  43.0043  53.6430 0001468 263.6372  96.4303 15.02534781 56452,15.02534781,0.0001468,LEO
57104,STARLINK-6130,2023,95.84,-1.0,+,43.01,Active,0,LEO,USA,USA,Unknown,Unknown,Unknown,1 57104U 23090D   24173.16385680  .00000894  00000+0  81269-4 0  9995,2 57104  43.0059  79.3622 0001302 264.4217  95.6477 15.02533688 56168,15.02533688,0.0001302,LEO
57105,STARLINK-6097,2023,95.84,-1.0,+,43.01,Active,0,LEO,USA,USA,Unknown,Unknown,Unknown,1 57105U 23090E   24173.16052789 -.00000420  00000+0 -16021-4 0  9998,2 57105  43.0038  79.3358 0001194 269.8044  90.2662 15.02532646 56168,15.02532646,0.0001194,LEO
57106,STARLINK-6118,2023,95.84,-1.0,+,43.0,Active,0,LEO,USA,USA,Unknown,Unknown,Unknown,1 57106U 23090F   24173.08849699  .00000697  00000+0  66642-4 0  9992,2 57106  43.0014  79.6505 0001041 259.9336 100.1389 15.02535928 56157,15.02535928,0.0001041,LEO
57107,STARLINK-6131,2023,95.84,-1.0,+,43.0,Active,0,LEO,USA,USA,Unknown,Unknown,Unknown,1 57107U 23090G   24173.73995497  .00001195  00000+0  10353-3 0  9994,2 57107  43.0062  75.9442 0001290 253.1053 106.9648 15.02536007 55114,15.02536007,0.000129,LEO
57108,STARLINK-6099,2023,95.84,-1.0,+,43.0,Active,0,LEO,USA,USA,Unknown,Unknown,Unknown,1 57108U 23090H   24173.15719676  .00000387  00000+0  43723-4 0  9994,2 57108  43.0009  79.3149 0000984 278.2830  81.7901 15.02534788 56160,15.02534788,9.84e-05,LEO
57109,STARLINK-6139,2023,95.84,-1.0,+,43.0,Active,0,LEO,USA,USA,Unknown,Unknown,Unknown,1 57109U 23090J   24173.01425109 -.00000266  00000+0 -46563-5 0  9999,2 57109  43.0019  79.9609 0000836 266.2214  93.8533 15.02536072 56149,15.02536072,8.36e-05,LEO
57110,STARLINK-6134,2023,95.84,-1.0,+,43.01,Active,0,LEO,USA,USA,Unknown,Unknown,Unknown,1 57110U 23090K   24173.75660929 -.00000609  00000+0 -30016-4 0  9999,2 57110  43.0021  76.0687 0001085 267.7089  92.3629 15.02530848 55112,15.02530848,0.0001085,LEO
57111,STARLINK-6140,2023,95.84,-1.0,+,43.0,Active,0,LEO,USA,USA,Unknown,Unknown,Unknown,1 57111U 23090L   24173.06852011  .00000891  00000+0  81006-4 0  9995,2 57111  43.0047  79.5043 0001507 258.3206 101.7468 15.02534017 55018,15.02534017,0.0001507,LEO
57112,STARLINK-6141,2023,95.84,-1.0,+,43.0,Active,0,LEO,USA,USA,Unknown,Unknown,Unknown,1 57112U 23090M   24173.01869097 -.00000244  00000+0 -30162-5 0  9995,2 57112  43.0025  79.9889 0001262 267.3662  92.7036 15.02532243 56145,15.02532243,0.0001262,LEO
57113,STARLINK-6142,2023,95.84,-1.0,+,43.0,Active,0,LEO,USA,USA,Unknown,Unknown,Unknown,1 57113U 23090N   24173.07406944  .00001045  00000+0  92432-4 0  9995,2 57113  43.0056  79.5485 0001408 267.3052  92.7629 15.02533774 56152,15.02533774,0.0001408,LEO
57114,STARLINK-6125,2023,95.84,-1.0,+,43.0,Active,0,LEO,USA,USA,Unknown,Unknown,Unknown,1 57114U 23090P   24173.13721182 -.00002128  00000+0 -14247-3 0  9999,2 57114  43.0029  79.1618 0001042 269.7416  90.3306 15.02550000 56169,15.0255,0.0001042,LEO
57115,STARLINK-6085,2023,95.84,-1.0,+,43.0,Active,0,LEO,USA,USA,Unknown,Unknown,Unknown,1 57115U 23090Q   24173.13166818  .00001016  00000+0  90257-4 0  9998,2 57115  43.0040  79.1204 0001273 262.5244  97.5454 15.02535058 56169,15.02535058,0.0001273,LEO
57116,STARLINK-6129,2023,95.84,-1.0,+,43.0,Active,0,LEO,USA,USA,Unknown,Unknown,Unknown,1 57116U 23090R   24173.07739564  .00000446  00000+0  48113-4 0  9996,2 57116  43.0043  79.5735 0001208 267.1559  92.9145 15.02535875 56156,15.02535875,0.0001208,LEO
57117,STARLINK-6148,2023,95.84,-1.0,+,43.0,Active,0,LEO,USA,USA,Unknown,Unknown,Unknown,1 57117U 23090S   24173.79312073  .00000488  00000+0  51209-4 0  9994,2 57117  43.0033  75.4802 0001053 281.6532  78.4192 15.02527779 55127,15.02527779,0.0001053,LEO
57118,STARLINK-6151,2023,95.84,-1.0,+,43.01,Active,0,LEO,USA,USA,Unknown,Unknown,Unknown,1 57118U 23090T   24173.06741173 -.00000236  00000+0 -23567-5 0  9992,2 57118  43.0044  79.4972 0001498 259.0669 101.0005 15.02531735 56152,15.02531735,0.0001498,LEO
57119,STARLINK-6150,2023,95.84,-1.0,+,43.0,Active,0,LEO,USA,USA,Unknown,Unknown,Unknown,1 57119U 23090U   24173.12389833  .00000112  00000+0  23380-4 0  9994,2 57119  43.0043  79.0580 0001106 274.5761  85.4955 15.02536652 56167,15.02536652,0.0001106,LEO
57120,STARLINK-6147,2023,95.84,-1.0,+,43.0,Active,0,LEO,USA,USA,Unknown,Unknown,Unknown,1 57120U 23090V   24173.06408188 -.00000234  00000+0 -22562-5 0  9993,2 57120  43.0053  79.4693 0000836 270.2287  89.8460 15.02531638 56151,15.02531638,8.36e-05,LEO
57121,STARLINK-6152,2023,95.84,-1.0,+,43.0,Active,0,LEO,USA,USA,Unknown,Unknown,Unknown,1 57121U 23090W   24173.18149421  .00000582  00000+0  58111-4 0  9991,2 57121  43.0042  78.6313 0001115 275.6183  84.4532 15.02539466 55983,15.02539466,0.0001115,LEO
57122,STARLINK-6149,2023,95.84,-1.0,+,43.0,Active,0,LEO,USA,USA,Unknown,Unknown,Unknown,1 57122U 23090X   24173.78535097  .00000138  00000+0  25260-4 0  9992,2 57122  43.0040  75.4212 0001167 275.8191  84.2518 15.02530431 55124,15.02530431,0.0001167,LEO
57123,STARLINK-6154,2023,95.84,-1.0,+,43.0,Active,0,LEO,USA,USA,Unknown,Unknown,Unknown,1 57123U 23090Y   24173.17816809  .00000615  00000+0  60568-4 0  9999,2 57123  43.0032  78.6054 0001390 263.2575  96.8110 15.02533579 55987,15.02533579,0.000139,LEO
57124,STARLINK-6146,2023,95.84,-1.0,+,43.0,Active,0,LEO,USA,USA,Unknown,Unknown,Unknown,1 57124U 23090Z   24173.11834345  .00001253  00000+0  10780-3 0  9998,2 57124  43.0033  79.0177 0001074 268.1181  91.9538 15.02536968 56162,15.02536968,0.0001074,LEO
57125,STARLINK-6100,2023,95.84,-1.0,+,43.0,Active,0,LEO,USA,USA,Unknown,Unknown,Unknown,1 57125U 23090AA  24173.09763223  .00003732  00000+0  29134-3 0  9999,2 57125  43.0051  66.7033 0000889 258.9787 101.0956 15.02520032 56116,15.02520032,8.89e-05,LEO
57126,STARLINK-6167,2023,95.84,-1.0,+,43.01,Active,0,LEO,USA,USA,Unknown,Unknown,Unknown,1 57126U 23090AB  24173.78201986  .00000512  00000+0  53004-4 0  9996,2 57126  43.0042  75.3958 0001104 271.9715  88.1001 15.02532429 55125,15.02532429,0.0001104,LEO
